#dP2022 12  4  0  0  0.00000000      96 __u+U ITR00 FIT  IAC
## 2239      0.00000000   900.00000000 59917 0.0000000000000
+  118   C06C07C08C09C10C11C12C13C14C16C19C20C21C22C23C24C25
+        C26C27C28C29C30C32C33C34C35C36C37C38C39C40C41C42C43
+        C44C45C46E01E02E03E04E05E07E08E09E10E11E12E13E14E15
+        E18E19E21E24E25E26E27E30E31E33E34E36G01G02G03G04G05
+        G06G07G08G09G10G11G12G13G14G15G16G17G18G19G20G21G22
+        G23G24G25G26G27G29G30G31G32J02J03J04R01R02R03R04R05
+        R07R08R09R11R12R13R14R15R17R18R19R20R21R22R24R25  0
++         8  7 10  9  8  8  7 14  8  7  7  6  7  8  7  7  8
++         8  7  8  7  6  6  8  8  6  7  6  8  6  8  7  7  7
++         7  8  7  7  6  7  7  6  6  0  6  6  6  6  6  6  6
++         6  6  6  7  7  5  6  6  6  5  6  6  7  6  7  6  7
++         5  6  7  7  7  7  6  6  6  6  7  6  5  6  7  7  7
++         7  6  6  6  7  6  5  7  6  8  8  9  6  7  7  6  7
++         7  6  7  7  7  7  6  6  5  7  7  7  5  6  6  6  0
%c M  cc GPS ccc cccc cccc cccc cccc ccccc ccccc ccccc ccccc
%c cc cc ccc ccc cccc cccc cccc cccc ccccc ccccc ccccc ccccc
%f  0.0000000  0.000000000  0.00000000000  0.000000000000000
%f  0.0000000  0.000000000  0.00000000000  0.000000000000000
%i    0    0    0    0      0      0      0      0         0
%i    0    0    0    0      0      0      0      0         0
/* INFORMATION & ANALYSIS CENTER (IAC)      ULTRA-RAPID DATA
/* S/V CLOCKS ARE ALIGNED TO GNSS TIME                      
/* G:C1WC2W R:C1PC2P E:C1XC5X C:C2IC6I J:C1CC2S             
/* PCV:IGS14_2233 OL/AL:FES2004  NONE     YN ORB:CoN CLK:CoN
*  2022 12 04 13 45  0.00000000
PC06  -2257.089746  38537.049233 -16691.243776    224.050862
PC07  -9028.211589  25937.784620  32030.393071    122.845485
PC08 -19391.899145  33962.424068 -16003.659054    519.544806
PC09   2282.043347  40739.378490  -9064.958809   -790.999886
PC10    180.249718  27396.806873  32382.486680     57.399442
PC11 -16295.120593 -18996.396614  12387.621040   -255.130763
PC12  -7344.859896 -26457.440786  -4890.672557    330.451574
PC13 -12341.401718  34036.471459 -21691.141070    149.751571
PC14 -23636.190470 -10122.775081  10797.610009    234.543704
PC16  -5697.586386  35679.291950 -21328.992517    107.159017
PC19  27526.651550   4286.284687  -1718.853185   -906.933573
PC20  17580.046196  13601.164161 -16879.137825    817.000662
PC21   3803.158990 -15390.199761  22975.692322   -930.458670
PC22  22081.677736  -7892.595413  15134.700050   -758.256183
PC23 -20388.786093  17044.589901  -8534.975120   -873.059355
PC24  -5135.535875 -18020.101102 -20684.841151   -719.695269
PC25 -18794.355765    914.395530 -20626.119580     34.442127
PC26   9031.771859 -24594.776569  -9566.208684    -45.108907
PC27    880.408513  24854.284553  12632.372150     61.175785
PC28 -11746.532268  12019.321267  22286.557225     43.406804
PC29  18568.763302   8602.456554 -18973.497735     49.229270
PC30  13920.407652  23890.576098  -3693.648753      1.137720
PC32  -3780.921696  15408.298062 -22947.577277   -694.445010
PC33 -27520.871967  -4207.603432   1849.355381   -899.528823
PC34 -14491.686643 -23368.713307   4816.539864     53.675534
PC35  12345.420742 -10875.720820 -22547.506906    117.832032
PC36  18520.596272    219.142687  20888.410001   -792.446117
PC37 -10679.069180  24412.487890   8350.051426   -894.610903
PC38 -23207.873435  34314.342696  -8353.002528     42.636359
PC39  -6900.445008  33129.878393 -25025.133364     -0.999686
PC40 -14883.661525  19169.542870  34451.356834     -9.476428
PC41 -22469.010540   7637.527337 -14639.060108   -344.323950
PC42 -16405.913745 -14049.205741  17699.920691   -786.891407
PC43 -18676.353267  -9443.518232  18465.529004     28.373422
PC44  -1553.493975 -24786.267455 -12763.630384    134.438409
PC45  20255.346367 -17319.360878   8224.172666    -30.505106
PC46   6531.306424  16690.580972  21396.077499    -17.337440
PE01  24238.252756 -15335.294789  -7288.356435   -575.714966
PE02 -24101.012828  15465.209577   7540.014258      6.534437
PE03 -14063.510431  10429.723001 -23875.338898   -626.449063
PE04  -4914.540139 -21364.358439  19890.183427     -6.854771
PE05 -25212.037452  -6908.700286 -13893.906721   -118.345156
PE07  21488.280428  19956.128571  -4038.757554     -4.493412
PE08      0.000000      0.000000      0.000000 999999.999999
PE09 -21432.539341 -19962.185029   4247.201919   -752.101509
PE10  -3726.313402 -27267.696269  10883.257273   -495.414612
PE11  -9997.392972 -20184.062574  19205.748359   1020.199427
PE12   2650.234867 -29441.873257   1639.627196   -313.125515
PE13   9493.682920  20935.053001 -18639.959512    430.465838
PE14   3493.092638 -20600.841549 -20422.563313     75.058730
PE15  -2797.404496  29438.543723  -1318.403462    703.173707
PE18  12905.865610  23899.648987   8790.144823   -667.561068
PE19  16204.088488  -8105.077008  23404.333354  -3829.897723
PE21  27552.486692  -3991.985482  10042.774373   -498.396573
PE24 -14569.770359 -11235.679699 -23205.908221   -983.202135
PE25 -27494.601152   3773.013785 -10306.847638   -594.171163
PE26  16331.925533   -697.162795 -24666.773324  -1891.294007
PE27  15434.872901  10565.623332  22941.209391   -455.115278
PE30  -6523.075937  18874.439426  21848.100374  -1050.868541
PE31   5626.731947 -18743.237488 -22197.084952   -509.804395
PE33  13341.623222 -20517.786917 -16640.693411   -455.655044
PE34 -13248.303925  20691.006839  16519.016662    -17.907095
PE36 -16090.433616   -254.173453  24851.506582   -470.403726
PG01 -13369.405083  17753.263168  13967.089730    242.421953
PG02  10645.436819 -21208.193887 -11502.793281   -634.748016
PG03 -22248.044103  12521.637989  -7248.880553   -375.027908
PG04 -12437.204140   9029.773747 -21667.411493    -74.787948
PG05  25399.059563  -4832.335732  -6515.748945   -106.785940
PG06   7327.935708  19007.801527 -16929.093601    533.064546
PG07  -5724.949363  25642.927738   -447.436982    279.064091
PG08 -20042.491038   -912.157072  17545.371472    -96.999693
PG09  -1153.441496  17575.752108 -19947.133118   -258.778191
PG10  -6212.555416 -13659.910725  22086.795089    -14.639630
PG11  13635.432188   7153.270015 -21636.381911    -50.738890
PG12  23385.964349 -10707.367806  -6675.035247   -311.942474
PG13  20622.034710   9820.760291  13535.437516    436.100294
PG14   3285.159580  15104.334157  21602.063127    -73.555220
PG15  20108.381054  -1681.239286  16960.083832     -6.945868
PG16 -24810.716233  -1442.510835 -10286.116807   -526.543854
PG17  10099.215055  21652.982478  11955.859054    683.215401
PG18   4872.576685 -25989.227766   1461.762881    -46.258970
PG19  17761.990710  19933.630802    354.271747    246.026295
PG20  20067.604907   3267.444209 -16950.996076    465.789052
PG21 -15269.063277   8952.969309  20163.940558    154.623544
PG22 -19016.174435 -18595.042670  -1365.806129    377.821712
PG23   6301.868137 -16603.883968  19699.190019     -0.417032
PG24  14191.798393 -14319.494097  16734.920173     30.900581
PG25  15199.500903 -16174.664446 -14673.976480    398.865666
PG26 -17639.718304  -7641.896724 -18559.231227    237.582722
PG27 -22327.413369 -11452.986385   9081.769611    162.066445
PG29   4275.546343 -15834.001030 -20914.532012   -571.720594
PG30   2604.190166  24167.743918  10485.460652   -535.925233
PG31  -8894.955395 -17527.749238 -17803.483848   -202.226757
PG32 -13977.912182 -20819.023287   9207.755158   -318.072579
PJ02 -30813.597548  27127.675136  14534.495791     -0.250725
PJ03 -25862.323999  26155.476596  25688.864951     -5.942826
PJ04 -31491.408506  20391.305987 -14009.425244    114.338626
PR01  21645.061034   -640.320698  13482.228579     18.976098
PR02   5493.961573  -9602.263935  23017.523137    -23.402400
PR03 -12867.644078 -12847.060924  17959.600084     68.468088
PR04 -23690.710421  -8964.926806   3114.107457    167.326859
PR05 -21674.230084   -284.434922 -13466.223269    103.991616
PR07  13508.149772  12782.586957 -17396.583352     45.487166
PR08  23766.651122   8746.547043  -2838.742157    -68.413507
PR09 -13584.210536  19545.170562   9086.491383     91.167848
PR11  13303.545387   1492.982796  21723.899559     17.070585
PR12  20041.592777 -13156.023161   8706.814710     23.377682
PR13  14825.982763 -19324.040548  -7586.753372    -29.587149
PR14    -85.709704 -14117.889569 -21238.718839     24.082047
PR15 -14038.981247   -819.128081 -21264.744126     92.558783
PR17  -6942.163274 -24307.441217   3256.220085    583.933546
PR18 -11287.094081 -14275.332153  17918.807441     55.168166
PR19 -10234.194057   1600.272526  23316.664662   -213.318410
PR20  -2751.435847  20768.340912  14540.200898    -83.316736
PR21   7433.334942  23924.717498  -4874.967124   -354.829700
PR22  11139.413189  13898.105903 -18223.861435     19.624512
PR24   2052.267411 -21315.425809 -13822.528804    130.610526
PR25   5592.678288  24744.467223  -2771.493704     48.023535
EOF
